IRIDIUM 33 DEB          
1 34593U 97051JK  17345.52617219  .00026616  00000-0  13920-2 0  9997
2 34593  86.3504 169.8523 0006821 282.8881 128.9996 15.15717503467006
